{
  "type": "FeatureCollection",
  "features": [
    {
      "type": "Feature",
      "properties": {
        "norad_id": 34350,
        "name": "IRIDIUM 33 DEB",
        "group": "iridium-33-debris",
        "lat": 52.16186872792272,
        "lon": 175.35446376483247,
        "alt_km": 719.742555120888,
        "timestamp": "2025-12-18T23:35:49.447327+00:00",
        "meta_object_name": "IRIDIUM 33 DEB",
        "meta_object_id": "1997-051ES",
        "meta_epoch": "2025-12-18T12:05:02.649696",
        "meta_mean_motion": 14.45400034,
        "meta_eccentricity": 0.00232374,
        "meta_inclination": 86.3272,
        "meta_ra_of_asc_node": 0.306,
        "meta_arg_of_pericenter": 117.4224,
        "meta_mean_anomaly": 35.6002,
        "meta_ephemeris_type": 0,
        "meta_classification_type": "U",
        "meta_norad_cat_id": 34350,
        "meta_element_set_no": 999,
        "meta_rev_at_epoch": 88376,
        "meta_bstar": 0.0002607708,
        "meta_mean_motion_dot": 9.4e-06,
        "meta_mean_motion_ddot": 0,
        "tle_line1": "1 34350U 97051ES  25352.50350289  .00000940  00000+0  26077-3 0  9993",
        "tle_line2": "2 34350  86.3272   0.3060 0023237 117.4224  35.6002 14.45400034883765"
      },
      "geometry": {
        "type": "Point",
        "coordinates": [
          175.35446376483247,
          52.16186872792272
        ]
      }
    },
    {
      "type": "Feature",
      "properties": {
        "norad_id": 34366,
        "name": "IRIDIUM 33 DEB",
        "group": "iridium-33-debris",
        "lat": -69.135741628161,
        "lon": 37.01008152027344,
        "alt_km": 735.6497254145024,
        "timestamp": "2025-12-18T23:35:49.447337+00:00",
        "meta_object_name": "IRIDIUM 33 DEB",
        "meta_object_id": "1997-051FJ",
        "meta_epoch": "2025-12-18T14:34:32.858400",
        "meta_mean_motion": 14.54103617,
        "meta_eccentricity": 0.00228949,
        "meta_inclination": 86.3697,
        "meta_ra_of_asc_node": 46.7619,
        "meta_arg_of_pericenter": 121.3306,
        "meta_mean_anomaly": 2.8167,
        "meta_ephemeris_type": 0,
        "meta_classification_type": "U",
        "meta_norad_cat_id": 34366,
        "meta_element_set_no": 999,
        "meta_rev_at_epoch": 88267,
        "meta_bstar": 0.00070491505,
        "meta_mean_motion_dot": 3.008e-05,
        "meta_mean_motion_ddot": 0,
        "tle_line1": "1 34366U 97051FJ  25352.60732475  .00003008  00000+0  70492-3 0  9990",
        "tle_line2": "2 34366  86.3697  46.7619 0022894 121.3306   2.8167 14.54103617882674"
      },
      "geometry": {
        "type": "Point",
        "coordinates": [
          37.01008152027344,
          -69.135741628161
        ]
      }
    },
    {
      "type": "Feature",
      "properties": {
        "norad_id": 34375,
        "name": "IRIDIUM 33 DEB",
        "group": "iridium-33-debris",
        "lat": 63.77460529646835,
        "lon": -7.093244708102108,
        "alt_km": 752.1160879077606,
        "timestamp": "2025-12-18T23:35:49.447349+00:00",
        "meta_object_name": "IRIDIUM 33 DEB",
        "meta_object_id": "1997-051FT",
        "meta_epoch": "2025-12-18T13:09:00.260352",
        "meta_mean_motion": 14.18002809,
        "meta_eccentricity": 0.01036066,
        "meta_inclination": 86.432,
        "meta_ra_of_asc_node": 180.3588,
        "meta_arg_of_pericenter": 108.552,
        "meta_mean_anomaly": 306.522,
        "meta_ephemeris_type": 0,
        "meta_classification_type": "U",
        "meta_norad_cat_id": 34375,
        "meta_element_set_no": 999,
        "meta_rev_at_epoch": 86794,
        "meta_bstar": 0.0003387918,
        "meta_mean_motion_dot": 7.51e-06,
        "meta_mean_motion_ddot": 0,
        "tle_line1": "1 34375U 97051FT  25352.54791968  .00000751  00000+0  33879-3 0  9995",
        "tle_line2": "2 34375  86.4320 180.3588 0103606 108.5520 306.5220 14.18002809867942"
      },
      "geometry": {
        "type": "Point",
        "coordinates": [
          -7.093244708102108,
          63.77460529646835
        ]
      }
    },
    {
      "type": "Feature",
      "properties": {
        "norad_id": 34376,
        "name": "IRIDIUM 33 DEB",
        "group": "iridium-33-debris",
        "lat": 48.950669819890074,
        "lon": 7.997287256624598,
        "alt_km": 682.5717766657781,
        "timestamp": "2025-12-18T23:35:49.447359+00:00",
        "meta_object_name": "IRIDIUM 33 DEB",
        "meta_object_id": "1997-051FU",
        "meta_epoch": "2025-12-18T11:52:45.395904",
        "meta_mean_motion": 14.62645733,
        "meta_eccentricity": 0.00278817,
        "meta_inclination": 86.2979,
        "meta_ra_of_asc_node": 3.9527,
        "meta_arg_of_pericenter": 147.599,
        "meta_mean_anomaly": 212.6941,
        "meta_ephemeris_type": 0,
        "meta_classification_type": "U",
        "meta_norad_cat_id": 34376,
        "meta_element_set_no": 999,
        "meta_rev_at_epoch": 88091,
        "meta_bstar": 0.0011763491,
        "meta_mean_motion_dot": 6.037e-05,
        "meta_mean_motion_ddot": 0,
        "tle_line1": "1 34376U 97051FU  25352.49496986  .00006037  00000+0  11763-2 0  9992",
        "tle_line2": "2 34376  86.2979   3.9527 0027881 147.5990 212.6941 14.62645733880915"
      },
      "geometry": {
        "type": "Point",
        "coordinates": [
          7.997287256624598,
          48.950669819890074
        ]
      }
    },
    {
      "type": "Feature",
      "properties": {
        "norad_id": 34486,
        "name": "IRIDIUM 33 DEB",
        "group": "iridium-33-debris",
        "lat": -65.70809506891744,
        "lon": 1.1085791324253647,
        "alt_km": 595.473264654187,
        "timestamp": "2025-12-18T23:35:49.447370+00:00",
        "meta_object_name": "IRIDIUM 33 DEB",
        "meta_object_id": "1997-051GB",
        "meta_epoch": "2025-12-18T13:12:33.232032",
        "meta_mean_motion": 14.96051759,
        "meta_eccentricity": 0.00138921,
        "meta_inclination": 86.3929,
        "meta_ra_of_asc_node": 9.3426,
        "meta_arg_of_pericenter": 95.5939,
        "meta_mean_anomaly": 28.9882,
        "meta_ephemeris_type": 0,
        "meta_classification_type": "U",
        "meta_norad_cat_id": 34486,
        "meta_element_set_no": 999,
        "meta_rev_at_epoch": 89073,
        "meta_bstar": 0.0017069689,
        "meta_mean_motion_dot": 0.00019258,
        "meta_mean_motion_ddot": 0,
        "tle_line1": "1 34486U 97051GB  25352.55038463  .00019258  00000+0  17070-2 0  9999",
        "tle_line2": "2 34486  86.3929   9.3426 0013892  95.5939  28.9882 14.96051759890732"
      },
      "geometry": {
        "type": "Point",
        "coordinates": [
          1.1085791324253647,
          -65.70809506891744
        ]
      }
    },
    {
      "type": "Feature",
      "properties": {
        "norad_id": 34487,
        "name": "IRIDIUM 33 DEB",
        "group": "iridium-33-debris",
        "lat": -26.58676476637541,
        "lon": -168.47664650628496,
        "alt_km": 756.7534534025463,
        "timestamp": "2025-12-18T23:35:49.447380+00:00",
        "meta_object_name": "IRIDIUM 33 DEB",
        "meta_object_id": "1997-051GC",
        "meta_epoch": "2025-12-18T07:45:56.041056",
        "meta_mean_motion": 14.43223269,
        "meta_eccentricity": 0.00331222,
        "meta_inclination": 86.3431,
        "meta_ra_of_asc_node": 9.9731,
        "meta_arg_of_pericenter": 110.9986,
        "meta_mean_anomaly": 270.0816,
        "meta_ephemeris_type": 0,
        "meta_classification_type": "U",
        "meta_norad_cat_id": 34487,
        "meta_element_set_no": 999,
        "meta_rev_at_epoch": 88329,
        "meta_bstar": 0.00015301486,
        "meta_mean_motion_dot": 5.38e-06,
        "meta_mean_motion_ddot": 0,
        "tle_line1": "1 34487U 97051GC  25352.32356529  .00000538  00000+0  15301-3 0  9998",
        "tle_line2": "2 34487  86.3431   9.9731 0033122 110.9986 270.0816 14.43223269883297"
      },
      "geometry": {
        "type": "Point",
        "coordinates": [
          -168.47664650628496,
          -26.58676476637541
        ]
      }
    },
    {
      "type": "Feature",
      "properties": {
        "norad_id": 34488,
        "name": "IRIDIUM 33 DEB",
        "group": "iridium-33-debris",
        "lat": -33.599564962457194,
        "lon": -59.732159908236575,
        "alt_km": 476.97862410929247,
        "timestamp": "2025-12-18T23:35:49.447391+00:00",
        "meta_object_name": "IRIDIUM 33 DEB",
        "meta_object_id": "1997-051GD",
        "meta_epoch": "2025-12-18T03:20:54.566016",
        "meta_mean_motion": 15.30728918,
        "meta_eccentricity": 0.00115761,
        "meta_inclination": 86.3225,
        "meta_ra_of_asc_node": 303.1359,
        "meta_arg_of_pericenter": 41.9025,
        "meta_mean_anomaly": 318.3108,
        "meta_ephemeris_type": 0,
        "meta_classification_type": "U",
        "meta_norad_cat_id": 34488,
        "meta_element_set_no": 999,
        "meta_rev_at_epoch": 89322,
        "meta_bstar": 0.0037310323,
        "meta_mean_motion_dot": 0.00112448,
        "meta_mean_motion_ddot": 0,
        "tle_line1": "1 34488U 97051GD  25352.13952044  .00112448  00000+0  37310-2 0  9999",
        "tle_line2": "2 34488  86.3225 303.1359 0011576  41.9025 318.3108 15.30728918893222"
      },
      "geometry": {
        "type": "Point",
        "coordinates": [
          -59.732159908236575,
          -33.599564962457194
        ]
      }
    }
  ]
}